LANDSAT 9               
1 49260U 21088A   24003.81516545  .00000471  00000+0  11452-3 0  9991
2 49260  98.2090  76.0762 0001075  92.2919 267.8402 14.57127182120600
